OBJECT_NAME,OBJECT_ID,EPOCH,MEAN_MOTION,ECCENTRICITY,INCLINATION,RA_OF_ASC_NODE,ARG_OF_PERICENTER,MEAN_ANOMALY,EPHEMERIS_TYPE,CLASSIFICATION_TYPE,NORAD_CAT_ID,ELEMENT_SET_NO,REV_AT_EPOCH,BSTAR,MEAN_MOTION_DOT,MEAN_MOTION_DDOT
QIANFAN-145,2026-108A,2026-06-13T19:46:02.423424,14.05311278,.00142575,89.0101,22.5972,132.4130,227.8260,0,U,69104,999,386,-.13825206E+1,-.207394E-1,0
QIANFAN-146,2026-108B,2026-06-13T20:48:59.815008,14.10364472,.00186158,89.0108,22.5681,104.6869,255.6381,0,U,69105,999,388,-.10277691E+1,-.169544E-1,0
QIANFAN-147,2026-108C,2026-06-13T20:58:54.168384,14.06641037,.00152219,89.0102,22.5866,116.8314,243.4427,0,U,69106,999,387,-.12706406E+1,-.1960672E-1,0
QIANFAN-148,2026-108D,2026-06-13T20:50:44.799648,14.05274529,.00185736,89.0102,22.5860,134.0513,226.2203,0,U,69107,999,387,-.12658816E+1,-.1910359E-1,0
QIANFAN-149,2026-108E,2026-06-14T00:13:20.925408,14.09076243,.00165533,89.0113,22.5707,122.2975,237.9815,0,U,69108,999,389,.30668126E-4,.67E-6,0
QIANFAN-150,2026-108F,2026-06-14T11:48:11.676384,14.10188546,.00168128,89.0115,22.5142,120.8429,239.4413,0,U,69109,999,396,.2933608E-5,.19E-6,0
QIANFAN-151,2026-108G,2026-06-13T20:20:16.891872,14.06080708,.00161499,89.0114,22.5830,128.9940,231.2683,0,U,69110,999,387,-.12621252E+1,-.1930369E-1,0
QIANFAN-152,2026-108H,2026-06-13T20:05:05.791776,14.07695038,.001701,89.0106,22.5818,119.1577,241.1311,0,U,69111,999,387,-.12008761E+1,-.1893806E-1,0
QIANFAN-153,2026-108J,2026-06-13T19:58:07.241664,14.06943309,.0016263,89.0102,22.5801,122.6383,237.6371,0,U,69112,999,387,-.1176426E+1,-.1813846E-1,0
QIANFAN-154,2026-108K,2026-06-13T19:48:02.876256,14.08392809,.00200047,89.0112,22.5808,110.5588,249.7744,0,U,69113,999,387,-.13179132E+1,-.2090587E-1,0
QIANFAN-155,2026-108L,2026-06-13T19:55:28.197408,14.07567838,.00193227,89.0103,22.5813,116.5625,243.7541,0,U,69114,999,387,-.13260112E+1,-.2073335E-1,0
QIANFAN-156,2026-108M,2026-06-12T23:08:21.295968,14.09991528,.00213123,89.0116,22.6746,111.6361,248.7096,0,U,69115,999,375,-.11884921E+1,-.1951408E-1,0
QIANFAN-157,2026-108N,2026-06-13T20:27:33.344064,14.10677837,.00218947,89.0107,22.5657,117.5197,242.8216,0,U,69116,999,388,-.11421385E+1,-.1902602E-1,0
QIANFAN-158,2026-108P,2026-06-14T15:42:22.955904,14.13619131,.0016471,89.0111,22.4828,119.8418,240.4408,0,U,69117,999,399,.37863E-4,.86E-6,0
QIANFAN-159,2026-108Q,2026-06-13T20:48:51.450624,14.10847637,.00167144,89.0104,22.5675,100.0534,260.2538,0,U,69118,999,388,-.12085163E+1,-.2009509E-1,0
QIANFAN-160,2026-108R,2026-06-13T20:43:45.402816,14.09596494,.0017565,89.0109,22.5680,106.3316,253.9802,0,U,69119,999,388,-.11751477E+1,-.1916835E-1,0
QIANFAN-161,2026-108S,2026-06-13T22:13:45.700896,14.16181151,.001554,89.0115,22.5587,122.9513,237.3171,0,U,69120,999,389,.34765E-4,.83E-6,0
QIANFAN-162,2026-108T,2026-06-13T20:25:26.339520,14.11632797,.00214844,89.0108,22.5660,121.5380,238.7908,0,U,69121,999,388,-.1053318E+1,-.1773185E-1,0
SMILE,2026-109A,2026-05-24T15:40:35.120928,14.57062785,.00091232,70.0007,229.2745,259.5159,100.4951,0,U,69123,999,80,-.42378883E-3,-.1976E-4,0
STARLINK-37726,2026-110A,2026-06-14T20:14:19.943232,15.49213356,.0001508,97.2833,2.0404,93.6717,266.4707,0,U,69124,999,523,.64559E-3,.35209E-3,0
STARLINK-37722,2026-110B,2026-06-14T20:09:24.931296,15.49218041,.0001326,97.2827,2.1976,1.6474,358.4781,0,U,69125,999,524,.9577E-3,.52397E-3,0
STARLINK-37715,2026-110C,2026-06-14T20:00:04.998816,15.33407570,.0001742,97.2839,2.2276,92.2395,317.7997,0,U,69126,999,527,.17281E-2,.56064E-3,0
STARLINK-37706,2026-110D,2026-06-14T20:00:04.998816,15.33407352,.0001601,97.2842,2.2348,89.2809,335.7497,0,U,69127,999,527,.16855E-2,.5467E-3,0
STARLINK-37723,2026-110E,2026-06-14T20:00:04.998816,15.33399420,.0001359,97.2844,2.2400,96.1421,343.8958,0,U,69128,999,527,.15721E-2,.5095E-3,0
STARLINK-37720,2026-110F,2026-06-14T12:16:37.068096,15.49234569,.00019652,97.2838,1.7250,81.4592,278.6882,0,U,69129,999,518,.13295285E-2,.73011E-3,0
STARLINK-37533,2026-110G,2026-06-14T20:00:04.998816,15.33400750,.0001354,97.2846,2.2575,97.1374,27.9100,0,U,69130,999,527,.15378E-2,.49831E-3,0
STARLINK-37530,2026-110H,2026-06-14T20:00:04.998816,15.33404710,.0001957,97.2843,2.2655,88.6606,51.3823,0,U,69131,999,527,.15947E-2,.51696E-3,0
STARLINK-37660,2026-110J,2026-06-14T19:48:03.275424,15.47921328,.0001031,97.2830,2.2174,306.9800,53.1356,0,U,69132,999,524,-.25402E-2,-.130113E-2,0
STARLINK-37633,2026-110K,2026-06-14T19:39:37.888128,15.49220590,.0001344,97.2828,2.2251,95.9462,264.1942,0,U,69133,999,524,.67786E-3,.36991E-3,0
